start=new Date('2022-09-05T00:00:00.000Z').valueOf();
sats=[{"COUNTRY_CODE":"US","APOAPSIS":"540.829","OBJECT_ID":"2022-049AA","FILE":"3558394","GP_ID":"211753766","TLE_LINE1":"1 52475U 22049AA  22247.83334491  .00016258  00000-0  10373-2 0  9990","OBJECT_TYPE":"PAYLOAD","OBJECT_NAME":"STARLINK-3882","CENTER_NAME":"EARTH","NORAD_CAT_ID":"52475","DECAY_DATE":null,"MEAN_MOTION_DOT":"0.00016258","ELEMENT_SET_NO":"999","MEAN_MOTION":"15.08837150","MEAN_MOTION_DDOT":"0.0000000000000","BSTAR":"0.00103730000000","TLE_LINE2":"2 52475  53.2183  53.5893 0001554  71.0072 315.1335 15.08837150  1305","REV_AT_EPOCH":"130","EPHEMERIS_TYPE":"0","RCS_SIZE":"LARGE","MEAN_ELEMENT_THEORY":"SGP4","CLASSIFICATION_TYPE":"U","PERIAPSIS":"538.679","SEMIMAJOR_AXIS":"6917.889","REF_FRAME":"TEME","RA_OF_ASC_NODE":"53.5893","TIME_SYSTEM":"UTC","MEAN_ANOMALY":"315.1335","ARG_OF_PERICENTER":"71.0072","LAUNCH_DATE":"2022-05-06","PERIOD":"95.438","SITE":"AFETR","ECCENTRICITY":"0.00015540","EPOCH":"2022-09-04T20:00:01.000224","INCLINATION":"53.2183"},{"MEAN_ANOMALY":"253.8729","TIME_SYSTEM":"UTC","RA_OF_ASC_NODE":"43.5935","ARG_OF_PERICENTER":"52.4647","PERIOD":"95.439","SITE":"AFETR","LAUNCH_DATE":"2022-05-06","INCLINATION":"53.2155","ECCENTRICITY":"0.00016890","EPOCH":"2022-09-04T20:00:01.000224","GP_ID":"211754858","FILE":"3558394","APOAPSIS":"540.971","COUNTRY_CODE":"US","OBJECT_ID":"2022-049AB","NORAD_CAT_ID":"52476","DECAY_DATE":null,"OBJECT_NAME":"STARLINK-3835","TLE_LINE1":"1 52476U 22049AB  22247.83334491  .00046791  00000-0  29401-2 0  9998","OBJECT_TYPE":"PAYLOAD","CENTER_NAME":"EARTH","REV_AT_EPOCH":"130","TLE_LINE2":"2 52476  53.2155  43.5935 0001689  52.4647 253.8729 15.08821393  1308","BSTAR":"0.00294010000000","MEAN_MOTION_DDOT":"0.0000000000000","EPHEMERIS_TYPE":"0","MEAN_MOTION_DOT":"0.00046791","ELEMENT_SET_NO":"999","MEAN_MOTION":"15.08821393","PERIAPSIS":"538.634","CLASSIFICATION_TYPE":"U","MEAN_ELEMENT_THEORY":"SGP4","REF_FRAME":"TEME","SEMIMAJOR_AXIS":"6917.937","RCS_SIZE":"LARGE"},{"TLE_LINE1":"1 52477U 22049AC  22247.83334491  .00097645  00000-0  60800-2 0  9991","OBJECT_TYPE":"PAYLOAD","CENTER_NAME":"EARTH","OBJECT_NAME":"STARLINK-3860","NORAD_CAT_ID":"52477","DECAY_DATE":null,"COUNTRY_CODE":"US","APOAPSIS":"541.371","OBJECT_ID":"2022-049AC","FILE":"3558394","GP_ID":"211754034","RCS_SIZE":"LARGE","MEAN_ELEMENT_THEORY":"SGP4","CLASSIFICATION_TYPE":"U","PERIAPSIS":"538.517","SEMIMAJOR_AXIS":"6918.079","REF_FRAME":"TEME","MEAN_MOTION":"15.08774957","MEAN_MOTION_DOT":"0.00097645","ELEMENT_SET_NO":"999","BSTAR":"0.00608000000000","MEAN_MOTION_DDOT":"0.0000000000000","TLE_LINE2":"2 52477  53.2146  43.5946 0002063  49.5038 216.7264 15.08774957  1304","REV_AT_EPOCH":"130","EPHEMERIS_TYPE":"0","ARG_OF_PERICENTER":"49.5038","RA_OF_ASC_NODE":"43.5946","TIME_SYSTEM":"UTC","MEAN_ANOMALY":"216.7264","ECCENTRICITY":"0.00020630","EPOCH":"2022-09-04T20:00:01.000224","INCLINATION":"53.2146","LAUNCH_DATE":"2022-05-06","PERIOD":"95.442","SITE":"AFETR"},{"TLE_LINE2":"2 52478  53.2189  53.5888 0001693  70.3581   0.9816 15.08843452  1304","REV_AT_EPOCH":"130","MEAN_MOTION_DDOT":"0.0000000000000","BSTAR":"-0.00004947300000","EPHEMERIS_TYPE":"0","ELEMENT_SET_NO":"999","MEAN_MOTION_DOT":"-0.00001075","MEAN_MOTION":"15.08843452","PERIAPSIS":"538.564","CLASSIFICATION_TYPE":"U","MEAN_ELEMENT_THEORY":"SGP4","REF_FRAME":"TEME","SEMIMAJOR_AXIS":"6917.870","RCS_SIZE":"LARGE","GP_ID":"211754723","FILE":"3558394","APOAPSIS":"540.906","COUNTRY_CODE":"US","OBJECT_ID":"2022-049AD","NORAD_CAT_ID":"52478","DECAY_DATE":null,"OBJECT_TYPE":"PAYLOAD","TLE_LINE1":"1 52478U 22049AD  22247.83334491 -.00001075  00000-0 -49473-4 0  9991","OBJECT_NAME":"STARLINK-3825","CENTER_NAME":"EARTH","PERIOD":"95.437","SITE":"AFETR","LAUNCH_DATE":"2022-05-06","INCLINATION":"53.2189","ECCENTRICITY":"0.00016930","EPOCH":"2022-09-04T20:00:01.000224","TIME_SYSTEM":"UTC","MEAN_ANOMALY":"0.9816","RA_OF_ASC_NODE":"53.5888","ARG_OF_PERICENTER":"70.3581"},{"OBJECT_TYPE":"PAYLOAD","TLE_LINE1":"1 52479U 22049AE  22247.83334491  .00047914  00000-0  30115-2 0  9993","CENTER_NAME":"EARTH","OBJECT_NAME":"STARLINK-3878","DECAY_DATE":null,"NORAD_CAT_ID":"52479","OBJECT_ID":"2022-049AE","COUNTRY_CODE":"US","APOAPSIS":"540.957","FILE":"3558394","GP_ID":"211754579","RCS_SIZE":"LARGE","SEMIMAJOR_AXIS":"6918.001","REF_FRAME":"TEME","MEAN_ELEMENT_THEORY":"SGP4","CLASSIFICATION_TYPE":"U","PERIAPSIS":"538.774","ELEMENT_SET_NO":"999","MEAN_MOTION":"15.08800667","MEAN_MOTION_DOT":"0.00047914","EPHEMERIS_TYPE":"0","BSTAR":"0.00301150000000","MEAN_MOTION_DDOT":"0.0000000000000","TLE_LINE2":"2 52479  53.2150  43.5939 0001578  56.9400 289.2955 15.08800667  1308","REV_AT_EPOCH":"130","ARG_OF_PERICENTER":"56.9400","RA_OF_ASC_NODE":"43.5939","MEAN_ANOMALY":"289.2955","TIME_SYSTEM":"UTC","EPOCH":"2022-09-04T20:00:01.000224","ECCENTRICITY":"0.00015780","INCLINATION":"53.2150","LAUNCH_DATE":"2022-05-06","SITE":"AFETR","PERIOD":"95.440"},{"ARG_OF_PERICENTER":"57.6473","RA_OF_ASC_NODE":"53.5869","TIME_SYSTEM":"UTC","MEAN_ANOMALY":"33.6790","ECCENTRICITY":"0.00019560","EPOCH":"2022-09-04T20:00:01.000224","INCLINATION":"53.2185","LAUNCH_DATE":"2022-05-06","PERIOD":"95.436","SITE":"AFETR","OBJECT_NAME":"STARLINK-3839","TLE_LINE1":"1 52480U 22049AF  22247.83334491 -.00017290  00000-0 -10703-2 0  9992","OBJECT_TYPE":"PAYLOAD","CENTER_NAME":"EARTH","NORAD_CAT_ID":"52480","DECAY_DATE":null,"COUNTRY_CODE":"US","APOAPSIS":"541.045","OBJECT_ID":"2022-049AF","FILE":"3558394","GP_ID":"211755035","RCS_SIZE":"LARGE","MEAN_ELEMENT_THEORY":"SGP4","PERIAPSIS":"538.338","CLASSIFICATION_TYPE":"U","SEMIMAJOR_AXIS":"6917.826","REF_FRAME":"TEME","MEAN_MOTION":"15.08857654","ELEMENT_SET_NO":"999","MEAN_MOTION_DOT":"-0.00017290","BSTAR":"-0.00107030000000","MEAN_MOTION_DDOT":"0.0000000000000","REV_AT_EPOCH":"130","TLE_LINE2":"2 52480  53.2185  53.5869 0001956  57.6473  33.6790 15.08857654  1305","EPHEMERIS_TYPE":"0"},{"MEAN_ANOMALY":"334.0916","TIME_SYSTEM":"UTC","RA_OF_ASC_NODE":"53.5901","ARG_OF_PERICENTER":"77.2728","SITE":"AFETR","PERIOD":"95.438","LAUNCH_DATE":"2022-05-06","INCLINATION":"53.2190","EPOCH":"2022-09-04T20:00:01.000224","ECCENTRICITY":"0.00015280","GP_ID":"211754449","FILE":"3558394","OBJECT_ID":"2022-049AG","APOAPSIS":"540.841","COUNTRY_CODE":"US","DECAY_DATE":null,"NORAD_CAT_ID":"52481","TLE_LINE1":"1 52481U 22049AG  22247.83334491  .00024881  00000-0  15764-2 0  9997","CENTER_NAME":"EARTH","OBJECT_TYPE":"PAYLOAD","OBJECT_NAME":"STARLINK-3842","EPHEMERIS_TYPE":"0","TLE_LINE2":"2 52481  53.2190  53.5901 0001528  77.2728 334.0916 15.08827506  1306","REV_AT_EPOCH":"130","BSTAR":"0.00157640000000","MEAN_MOTION_DDOT":"0.0000000000000","MEAN_MOTION":"15.08827506","ELEMENT_SET_NO":"999","MEAN_MOTION_DOT":"0.00024881","REF_FRAME":"TEME","SEMIMAJOR_AXIS":"6917.919","PERIAPSIS":"538.727","CLASSIFICATION_TYPE":"U","MEAN_ELEMENT_THEORY":"SGP4","RCS_SIZE":"LARGE"},{"TIME_SYSTEM":"UTC","MEAN_ANOMALY":"322.3908","RA_OF_ASC_NODE":"43.5845","ARG_OF_PERICENTER":"63.9630","SITE":"AFETR","PERIOD":"95.438","LAUNCH_DATE":"2022-05-06","ECCENTRICITY":"0.00017240","EPOCH":"2022-09-04T20:00:01.000224","INCLINATION":"53.2163","FILE":"3558394","GP_ID":"211754309","OBJECT_ID":"2022-049AH","COUNTRY_CODE":"US","APOAPSIS":"540.936","DECAY_DATE":null,"NORAD_CAT_ID":"52482","TLE_LINE1":"1 52482U 22049AH  22247.83334491  .00005359  00000-0  35453-3 0  9995","OBJECT_TYPE":"PAYLOAD","OBJECT_NAME":"STARLINK-3813","CENTER_NAME":"EARTH","EPHEMERIS_TYPE":"0","BSTAR":"0.00035453000000","MEAN_MOTION_DDOT":"0.0000000000000","TLE_LINE2":"2 52482  53.2163  43.5845 0001724  63.9630 322.3908 15.08840602  1308","REV_AT_EPOCH":"130","MEAN_MOTION":"15.08840602","ELEMENT_SET_NO":"999","MEAN_MOTION_DOT":"0.00005359","SEMIMAJOR_AXIS":"6917.879","REF_FRAME":"TEME","MEAN_ELEMENT_THEORY":"SGP4","PERIAPSIS":"538.551","CLASSIFICATION_TYPE":"U","RCS_SIZE":"LARGE"},{"RA_OF_ASC_NODE":"43.5933","MEAN_ANOMALY":"263.0712","TIME_SYSTEM":"UTC","ARG_OF_PERICENTER":"63.2782","LAUNCH_DATE":"2022-05-06","SITE":"AFETR","PERIOD":"95.439","ECCENTRICITY":"0.00016940","EPOCH":"2022-09-04T20:00:01.000224","INCLINATION":"53.2159","OBJECT_ID":"2022-049AJ","COUNTRY_CODE":"US","APOAPSIS":"540.981","FILE":"3558394","GP_ID":"211754165","TLE_LINE1":"1 52483U 22049AJ  22247.83334491  .00048119  00000-0  30227-2 0  9990","CENTER_NAME":"EARTH","OBJECT_TYPE":"PAYLOAD","OBJECT_NAME":"STARLINK-3875","DECAY_DATE":null,"NORAD_CAT_ID":"52483","MEAN_MOTION":"15.08819057","ELEMENT_SET_NO":"999","MEAN_MOTION_DOT":"0.00048119","EPHEMERIS_TYPE":"0","BSTAR":"0.00302270000000","MEAN_MOTION_DDOT":"0.0000000000000","TLE_LINE2":"2 52483  53.2159  43.5933 0001694  63.2782 263.0712 15.08819057  1303","REV_AT_EPOCH":"130","RCS_SIZE":"LARGE","SEMIMAJOR_AXIS":"6917.944","REF_FRAME":"TEME","MEAN_ELEMENT_THEORY":"SGP4","CLASSIFICATION_TYPE":"U","PERIAPSIS":"538.638"},{"LAUNCH_DATE":"2022-05-06","PERIOD":"95.438","SITE":"AFETR","ECCENTRICITY":"0.00016430","EPOCH":"2022-09-04T20:00:01.000224","INCLINATION":"53.2198","RA_OF_ASC_NODE":"53.5936","TIME_SYSTEM":"UTC","MEAN_ANOMALY":"59.1817","ARG_OF_PERICENTER":"52.1721","MEAN_MOTION_DOT":"0.00019437","MEAN_MOTION":"15.08826613","ELEMENT_SET_NO":"999","BSTAR":"0.00123640000000","MEAN_MOTION_DDOT":"0.0000000000000","REV_AT_EPOCH":"130","TLE_LINE2":"2 52484  53.2198  53.5936 0001643  52.1721  59.1817 15.08826613  1301","EPHEMERIS_TYPE":"0","RCS_SIZE":"LARGE","MEAN_ELEMENT_THEORY":"SGP4","PERIAPSIS":"538.650","CLASSIFICATION_TYPE":"U","SEMIMAJOR_AXIS":"6917.921","REF_FRAME":"TEME","COUNTRY_CODE":"US","APOAPSIS":"540.923","OBJECT_ID":"2022-049AK","FILE":"3558394","GP_ID":"211754859","TLE_LINE1":"1 52484U 22049AK  22247.83334491  .00019437  00000-0  12364-2 0  9994","OBJECT_TYPE":"PAYLOAD","CENTER_NAME":"EARTH","OBJECT_NAME":"STARLINK-3887","NORAD_CAT_ID":"52484","DECAY_DATE":null}];
